STARLINK-34584          
1 64697U 25142B   25197.58335648 -.01582853  00000+0 -21560-1 0  9990
2 64697  70.0004 200.1844 0003826 278.3311 107.5284 15.60504937  3851
STARLINK-34535          
1 64698U 25142C   25197.58335648 -.01588685  00000+0 -21652-1 0  9992
2 64698  70.0005 200.1819 0003485 276.9461 110.8318 15.60506413  3807
STARLINK-34600          
1 64699U 25142D   25197.58335648 -.01582791  00000+0 -21560-1 0  9993
2 64699  69.9998 200.1797 0003790 277.0723 112.6226 15.60504264  3858
STARLINK-34560          
1 64700U 25142E   25197.58335648 -.01585213  00000+0 -21597-1 0  9998
2 64700  70.0002 200.1775 0003804 278.8192 112.7922 15.60504288  3806
STARLINK-34576          
1 64701U 25142F   25197.58335648 -.01587596  00000+0 -21634-1 0  9997
2 64701  70.0002 200.1748 0003687 277.4324 116.0966 15.60505329  3800
STARLINK-34322          
1 64702U 25142G   25197.58335648 -.01585816  00000+0 -21606-1 0  9990
2 64702  70.0002 200.1731 0003705 279.7880 115.6537 15.60505884  4015
STARLINK-34470          
1 64703U 25142H   25197.58335648 -.01471367  00000+0 -19960-1 0  9996
2 64703  70.0003 200.1707 0004100 274.5695 122.9000 15.60378644  3801
STARLINK-34405          
1 64704U 25142J   25197.58335648 -.01587209  00000+0 -21628-1 0  9994
2 64704  70.0003 200.1688 0003645 277.9030 121.3739 15.60505938  3858
STARLINK-34406          
1 64705U 25142K   25197.58335648 -.01590719  00000+0 -21679-1 0  9991
2 64705  70.0004 200.1660 0003795 277.4393 123.7547 15.60507442  3960
STARLINK-34559          
1 64706U 25142L   25197.58335648 -.01577773  00000+0 -21486-1 0  9993
2 64706  70.0007 200.1636 0003747 278.5845 124.5257 15.60501296  3854
STARLINK-34316          
1 64707U 25142M   25197.57534209 -.00488405  00000+0 -61497-2 0  9996
2 64707  70.0007 200.1845 0003848 281.3139  78.7619 15.60985012  4021
STARLINK-34563          
1 64708U 25142N   25197.57501625 -.00189622  00000+0 -22998-2 0  9995
2 64708  70.0008 200.1832 0003759 278.0726  82.0039 15.61004655  3833
STARLINK-34499          
1 64709U 25142P   25197.57464200 -.00270180  00000+0 -32899-2 0  9994
2 64709  70.0006 200.1822 0003575 283.9559  76.1235 15.61163772  3834
STARLINK-34447          
1 64710U 25142Q   25197.58335648 -.01574869  00000+0 -21442-1 0  9993
2 64710  70.0003 200.1541 0003773 279.5736 131.2014 15.60500316  4016
STARLINK-34312          
1 64711U 25142R   25197.58335648 -.01583926  00000+0 -21578-1 0  9998
2 64711  70.0003 200.1519 0003672 278.8131 133.8783 15.60505110  4053
STARLINK-34515          
1 64712U 25142S   25197.57361771 -.00267792  00000+0 -32591-2 0  9991
2 64712  70.0006 200.1777 0003694 284.9241  75.1541 15.61169039  3839
STARLINK-34583          
1 64713U 25142T   25197.58335648 -.01581133  00000+0 -21537-1 0  9993
2 64713  70.0004 200.1473 0003709 280.0370 136.4888 15.60502416  3731
STARLINK-34574          
1 64714U 25142U   25197.58335648 -.01581437  00000+0 -21541-1 0  9996
2 64714  70.0004 200.1449 0003764 278.2432 140.2005 15.60502482  3898
STARLINK-34533          
1 64715U 25142V   25197.57257624  .00077462  00000+0  89909-3 0  9992
2 64715  70.0009 200.1732 0004778 279.8571  80.2081 15.61384516  3834
STARLINK-34548          
1 64716U 25142W   25197.58335648 -.01574118  00000+0 -21430-1 0  9993
2 64716  70.0007 200.1396 0003873 279.2933 142.9814 15.60499605  3846
STARLINK-34568          
1 64717U 25142X   25197.57197515 -.01067493  00000+0 -14184-1 0  9993
2 64717  70.0008 200.1713 0001885 208.4328 151.6760 15.60507890  3869
STARLINK-34546          
1 64718U 25142Y   25197.57157195 -.00308461  00000+0 -37759-2 0  9990
2 64718  70.0006 200.1696 0003993 279.5485  80.5255 15.61146227  4025
STARLINK-34577          
1 64719U 25142Z   25197.57091323 -.00580774  00000+0 -74127-2 0  9990
2 64719  70.0007 200.1670 0003892 275.8117  84.2630 15.60924145  3869
STARLINK-34572          
1 64720U 25142AA  25197.57124278 -.00064866  00000+0 -76844-3 0  9996
2 64720  70.0007 200.1682 0003402 285.6779  74.4037 15.61173584  4029
STARLINK-34558          
1 64721U 25142AB  25197.58335648 -.01585760  00000+0 -21608-1 0  9991
2 64721  70.0000 200.1291 0003583 278.4810 153.3785 15.60504044  3816
MTG-S1                  
1 64723U 25143A   25196.70069947 -.00000057  00000+0  00000+0 0  9993
2 64723   1.0073 303.3053 0011431 179.3574  59.7956  1.00090728    40
STARLINK-34393          
1 64724U 25144A   25197.58335648 -.00008263  00000+0 -52187-4 0  9992
2 64724  53.1575 202.1484 0001100  72.3778 195.0734 15.74185497  3528
STARLINK-34562          
1 64725U 25144B   25197.59935602  .00095253  00000+0  64687-3 0  9990
2 64725  53.1552 202.0633 0001219 132.7745 227.3378 15.74205704  3487
STARLINK-34557          
1 64726U 25144C   25197.59902219  .00112826  00000+0  76367-3 0  9993
2 64726  53.1558 202.0617 0001456  92.0879 268.0307 15.74210370  3507
STARLINK-34242          
1 64727U 25144D   25197.59868607  .00162115  00000+0  10889-2 0  9998
2 64727  53.1563 202.0597 0001162  91.5527 268.5626 15.74212972  3508
STARLINK-34239          
1 64728U 25144E   25197.58335648 -.00041209  00000+0 -27818-3 0  9995
2 64728  53.1619 202.1324 0001244  82.7080 192.3886 15.74210816  3526
STARLINK-34588          
1 64729U 25144F   25197.58335648 -.00016467  00000+0 -10835-3 0  9995
2 64729  53.1576 202.1282 0001203  83.6707 193.3629 15.74189443  3520
STARLINK-34606          
1 64730U 25144G   25197.59767097  .00182656  00000+0  12225-2 0  9991
2 64730  53.1559 202.0523 0001197  84.0551 276.0605 15.74228740  3509
STARLINK-34552          
1 64731U 25144H   25197.59733290  .00135196  00000+0  91134-3 0  9994
2 64731  53.1564 202.0496 0001577  63.6834 296.4348 15.74222228  3509
STARLINK-34596          
1 64732U 25144J   25197.59699259  .00140974  00000+0  94929-3 0  9996
2 64732  53.1565 202.0476 0001340  84.8236 275.2937 15.74226403  3506
STARLINK-34556          
1 64733U 25144K   25197.59665514  .00146994  00000+0  98898-3 0  9991
2 64733  53.1559 202.0450 0001394  80.2191 279.8986 15.74225335  3508
STARLINK-34591          
1 64734U 25144L   25197.59631730  .00120765  00000+0  81636-3 0  9995
2 64734  53.1564 202.0427 0001398  73.0251 287.0922 15.74209790  3485
STARLINK-34587          
1 64735U 25144M   25197.59597762  .00171005  00000+0  11458-2 0  9999
2 64735  53.1561 202.0404 0001285  87.7045 272.4122 15.74240517  3455
STARLINK-34130          
1 64736U 25144N   25197.59564315  .00192352  00000+0  12859-2 0  9992
2 64736  53.1564 202.0381 0001109  72.3613 287.7528 15.74224807  3508
STARLINK-34619          
1 64737U 25144P   25197.59530266  .00116074  00000+0  78513-3 0  9998
2 64737  53.1560 202.0348 0001025  86.2411 273.8726 15.74213566  3501
STARLINK-34597          
1 64738U 25144Q   25197.58335648 -.00037793  00000+0 -25489-3 0  9991
2 64738  53.1617 202.0920 0001165  81.1480 213.1375 15.74190140  3505
STARLINK-34471          
1 64739U 25144R   25197.59462863  .00101415  00000+0  68769-3 0  9992
2 64739  53.1567 202.0308 0001340  71.9233 288.1932 15.74214157  3447
STARLINK-34208          
1 64740U 25144S   25197.58335648 -.00094966  00000+0 -65079-3 0  9998
2 64740  53.1574 202.0840 0000944  66.9041 231.2232 15.74212180  3523
STARLINK-34205          
1 64741U 25144T   25197.59395042  .00106426  00000+0  72106-3 0  9996
2 64741  53.1567 202.0256 0001298  75.3024 284.8139 15.74213148  3508
STARLINK-34607          
1 64742U 25144U   25197.58335648 -.00074048  00000+0 -50541-3 0  9997
2 64742  53.1575 202.0754 0001168  91.9041 210.0555 15.74203878  3478
STARLINK-34236          
1 64743U 25144V   25197.59327662  .00149499  00000+0  10061-2 0  9999
2 64743  53.1566 202.0210 0001002  87.2601 272.8533 15.74210785  3504
STARLINK-34185          
1 64744U 25144W   25197.59293353  .00243841  00000+0  16163-2 0  9994
2 64744  53.1567 202.0190 0001073 117.3251 242.7878 15.74263256  3506
STARLINK-34581          
1 64745U 25144X   25197.52910960  .00145650  00000+0  98010-3 0  9999
2 64745  53.1564 202.3313 0001172  93.7183 266.3971 15.74226259  3491
STARLINK-34592          
1 64746U 25144Y   25197.59226092  .00118974  00000+0  80395-3 0  9999
2 64746  53.1565 202.0140 0001176  98.7810 261.3343 15.74225357  3502
STARLINK-34589          
1 64747U 25144Z   25197.59191638  .00105915  00000+0  71828-3 0  9999
2 64747  53.1567 202.0117 0001300  77.6345 282.4820 15.74193186  3505
STARLINK-34536          
1 64748U 25144AA  25197.59158382  .00175827  00000+0  11778-2 0  9995
2 64748  53.1569 202.0098 0000698  87.8683 272.2417 15.74230900  3508
STARLINK-34595          
1 64749U 25144AB  25197.52742058  .00128521  00000+0  86733-3 0  9991
2 64749  53.1570 202.3208 0001089  73.9629 286.1510 15.74220203  3499
STARLINK-34531          
1 64750U 25144AC  25197.59124392  .00142831  00000+0  95965-3 0  9992
2 64750  53.1566 202.0073 0001444 110.0745 250.0430 15.74271713  3505
PROGRESS-MS 31          
1 64751U 25146A   25197.42452828  .00006573  00000+0  12064-3 0  9996
2 64751  51.6363 162.1382 0002825  24.9428 118.6020 15.50569998  1217
SHIYAN-28B 01           
1 64753U 25145A   25197.57919257  .00000565  00000+0  51537-4 0  9991
2 64753  11.0003 353.4750 0003236 215.4418 144.5595 14.29197882  1823
CZ-4C R/B               
1 64754U 25145B   25197.60726702  .00000960  00000+0  81719-4 0  9991
2 64754  10.9869 349.3716 0121970 171.7452 188.4808 14.56353174  1817
STARLINK-33965          
1 64755U 25147A   25197.58335648 -.01364018  00000+0 -69777-2 0  9994
2 64755  53.1562 266.9134 0000923  72.4110  96.9148 15.83519278  2559
STARLINK-34371          
1 64756U 25147B   25197.55340620 -.00599080  00000+0 -28013-2 0  9994
2 64756  53.1562 267.0591 0000380  65.8736 294.2327 15.84009733  2447
STARLINK-34401          
1 64757U 25147C   25197.58335648 -.01377634  00000+0 -70393-2 0  9990
2 64757  53.1564 266.9053 0000906  80.1004  93.0629 15.83573903  2403
